NORAD_CAT_ID,OBJECT_NAME,OBJECT_TYPE,EPOCH,MEAN_MOTION,ECCENTRICITY,INCLINATION,RA_OF_ASC_NODE,ARG_OF_PERICENTER,MEAN_ANOMALY,BSTAR,MEAN_MOTION_DOT,MEAN_MOTION_DDOT,TLE_LINE0,TLE_LINE1,TLE_LINE2,SEMIMAJOR_AXIS,PERIOD,APOGEE,PERIGEE,DECAYED
53798.0,STARLINK-4712,PAYLOAD,2023-03-13 12:51:42,15.08867141,0.0001163,53.2177,136.5906,117.6178,242.4932,-0.00010009,-1.882e-05,0.0,0 STARLINK-4712,1 53798U 22111AB  23072.53591052 -.00001882  00000-0 -10009-3 0  9997,2 53798  53.2177 136.5906 0001163 117.6178 242.4932 15.08867141 27995,6917.797,95.436,540.467,538.858,0.0
53798.0,STARLINK-4712,PAYLOAD,2023-03-13 14:27:05,15.0886903,0.0001158,53.2177,136.293,117.6892,242.4218,-8.0094e-05,-1.563e-05,0.0,0 STARLINK-4712,1 53798U 22111AB  23072.60214758 -.00001563  00000-0 -80094-4 0  9998,2 53798  53.2177 136.2930 0001158 117.6892 242.4218 15.08869030 28814,6917.792,95.436,540.458,538.856,0.0
53798.0,STARLINK-4712,PAYLOAD,2023-03-14 12:42:30,15.08832173,0.0001225,53.2173,132.13,119.7611,240.3503,0.00015116,2.118e-05,0.0,0 STARLINK-4712,1 53798U 22111AB  23073.52952392  .00002118  00000-0  15116-3 0  9990,2 53798  53.2173 132.1300 0001225 119.7611 240.3503 15.08832173 28141,6917.904,95.438,540.617,538.922,0.0
53798.0,STARLINK-4712,PAYLOAD,2023-03-14 20:39:25,15.08847606,0.0001134,53.2176,130.6433,107.9797,252.1318,6.3034e-05,7.16e-06,0.0,0 STARLINK-4712,1 53798U 22111AB  23073.86071684  .00000716  00000-0  63034-4 0  9998,2 53798  53.2176 130.6433 0001134 107.9797 252.1318 15.08847606 28194,6917.857,95.437,540.507,538.938,0.0
53798.0,STARLINK-4712,PAYLOAD,2023-03-15 12:33:14,15.08875722,0.0001031,53.2173,127.6692,112.1424,247.9677,0.00031472,4.729e-05,0.0,0 STARLINK-4712,1 53798U 22111AB  23074.52308640  .00004729  00000-0  31472-3 0  9995,2 53798  53.2173 127.6692 0001031 112.1424 247.9677 15.08875722 28296,6917.771,95.435,540.349,538.923,0.0
53798.0,STARLINK-4712,PAYLOAD,2023-03-15 20:30:12,15.08846872,0.0001168,53.2176,126.1822,97.0118,263.1007,-7.1214e-05,-1.421e-05,0.0,0 STARLINK-4712,1 53798U 22111AB  23074.85431311 -.00001421  00000-0 -71214-4 0  9990,2 53798  53.2176 126.1822 0001168  97.0118 263.1007 15.08846872 29157,6917.859,95.437,540.532,538.916,0.0
53798.0,STARLINK-4712,PAYLOAD,2023-03-16 12:24:02,15.08868231,0.0001305,53.218,123.208,95.1253,264.9888,0.00017839,2.554e-05,0.0,0 STARLINK-4712,1 53798U 22111AB  23075.51669043  .00002554  00000-0  17839-3 0  9997,2 53798  53.2180 123.2080 0001305  95.1253 264.9888 15.08868231 28448,6917.794,95.436,540.562,538.756,0.0
53798.0,STARLINK-4712,PAYLOAD,2023-03-16 20:21:00,15.08827908,0.0001778,53.2181,121.7218,74.685,285.4339,-0.00015703,-2.786e-05,0.0,0 STARLINK-4712,1 53798U 22111AB  23075.84792724 -.00002786  00000-0 -15703-3 0  9993,2 53798  53.2181 121.7218 0001778  74.6850 285.4339 15.08827908 28494,6917.917,95.438,541.012,538.552,0.0
53798.0,STARLINK-4712,PAYLOAD,2023-03-17 09:04:07,15.08810461,0.0001469,53.2177,119.3444,75.3012,284.8143,-0.00035246,-5.888e-05,0.0,0 STARLINK-4712,1 53798U 22111AB  23076.37786865 -.00005888  00000-0 -35246-3 0  9991,2 53798  53.2177 119.3444 0001469  75.3012 284.8143 15.08810461 28579,6917.971,95.439,540.852,538.819,0.0
53798.0,STARLINK-4712,PAYLOAD,2023-03-17 20:11:48,15.08834059,0.0001516,53.2181,117.2603,78.8507,281.2655,-0.00033926,-5.682e-05,0.0,0 STARLINK-4712,1 53798U 22111AB  23076.84153650 -.00005682  00000-0 -33926-3 0  9998,2 53798  53.2181 117.2603 0001516  78.8507 281.2655 15.08834059 28644,6917.899,95.438,540.812,538.715,0.0
53798.0,STARLINK-4712,PAYLOAD,2023-03-18 12:05:39,15.08845462,0.0001538,53.2173,114.2871,86.572,273.5448,-6.0662e-05,-1.253e-05,0.0,0 STARLINK-4712,1 53798U 22111AB  23077.50392820 -.00001253  00000-0 -60662-4 0  9994,2 53798  53.2173 114.2871 0001538  86.5720 273.5448 15.08845462 28741,6917.864,95.437,540.793,538.665,0.0
53798.0,STARLINK-4712,PAYLOAD,2023-03-19 08:45:40,15.08872664,0.0001647,53.2165,110.4222,75.7171,284.4004,0.0010904,0.00017124,0.0,0 STARLINK-4712,1 53798U 22111AB  23078.36505098  .00017124  00000-0  10904-2 0  9996,2 53798  53.2165 110.4222 0001647  75.7171 284.4004 15.08872664 29688,6917.781,95.435,540.785,538.506,0.0
53798.0,STARLINK-4712,PAYLOAD,2023-03-19 13:31:49,15.08893403,0.0001699,53.2166,109.5301,75.9856,284.1325,0.001349,0.00021278,0.0,0 STARLINK-4712,1 53798U 22111AB  23078.56376333  .00021278  00000-0  13490-2 0  9994,2 53798  53.2166 109.5301 0001699  75.9856 284.1325 15.08893403 28906,6917.717,95.434,540.757,538.407,0.0
53798.0,STARLINK-4712,PAYLOAD,2023-03-20 08:36:26,15.08850838,0.0001928,53.2171,105.9625,68.1584,291.9613,0.001154,0.00018131,0.0,0 STARLINK-4712,1 53798U 22111AB  23079.35864493  .00018131  00000-0  11540-2 0  9999,2 53798  53.2171 105.9625 0001928  68.1584 291.9613 15.08850838 29023,6917.847,95.437,541.046,538.379,0.0
53798.0,STARLINK-4712,PAYLOAD,2023-03-20 11:47:13,15.08850931,0.0001909,53.217,105.368,66.093,294.0262,0.0010861,0.00017045,0.0,0 STARLINK-4712,1 53798U 22111AB  23079.49112445  .00017045  00000-0  10861-2 0  9995,2 53798  53.2170 105.3680 0001909  66.0930 294.0262 15.08850931 29857,6917.847,95.437,541.033,538.391,0.0
53798.0,STARLINK-4712,PAYLOAD,2023-03-20 18:08:45,15.08840728,0.0002276,53.2181,104.1772,74.8989,285.2254,0.00026304,3.901e-05,0.0,0 STARLINK-4712,1 53798U 22111AB  23079.75608746  .00003901  00000-0  26304-3 0  9994,2 53798  53.2181 104.1772 0002276  74.8989 285.2254 15.08840728 29088,6917.878,95.438,541.318,538.169,0.0
53798.0,STARLINK-4712,PAYLOAD,2023-03-21 10:02:37,15.08846524,0.0001961,53.2171,101.2039,79.8071,280.3142,0.0010708,0.00016798,0.0,0 STARLINK-4712,1 53798U 22111AB  23080.41848641  .00016798  00000-0  10708-2 0  9997,2 53798  53.2171 101.2039 0001961  79.8071 280.3142 15.08846524 29990,6917.86,95.437,541.082,538.369,0.0
53798.0,STARLINK-4712,PAYLOAD,2023-03-21 17:59:32,15.08842606,0.0001884,53.217,99.7161,73.6345,286.4854,0.00045799,7.009e-05,0.0,0 STARLINK-4712,1 53798U 22111AB  23080.74968723  .00007009  00000-0  45799-3 0  9991,2 53798  53.2170  99.7161 0001884  73.6345 286.4854 15.08842606 30048,6917.872,95.437,541.041,538.434,0.0
53798.0,STARLINK-4712,PAYLOAD,2023-03-22 05:07:15,15.08836614,0.0001852,53.2166,97.6358,86.257,273.8634,0.00020989,3.054e-05,0.0,0 STARLINK-4712,1 53798U 22111AB  23081.21336909  .00003054  00000-0  20989-3 0  9999,2 53798  53.2166  97.6358 0001852  86.2570 273.8634 15.08836614 29308,6917.891,95.438,541.037,538.475,0.0
53798.0,STARLINK-4712,PAYLOAD,2023-03-22 09:53:24,15.08841033,0.0001934,53.217,96.7442,81.5249,278.5963,0.00016367,2.318e-05,0.0,0 STARLINK-4712,1 53798U 22111AB  23081.41208878  .00002318  00000-0  16367-3 0  9991,2 53798  53.2170  96.7442 0001934  81.5249 278.5963 15.08841033 30141,6917.877,95.437,541.08,538.404,0.0
53798.0,STARLINK-4712,PAYLOAD,2023-03-23 09:44:11,15.08849135,0.000186,53.2164,92.2828,82.9292,277.1911,0.00033982,5.126e-05,0.0,0 STARLINK-4712,1 53798U 22111AB  23082.40568690  .00005126  00000-0  33982-3 0  9994,2 53798  53.2164  92.2828 0001860  82.9292 277.1911 15.08849135 29488,6917.852,95.437,541.004,538.431,0.0
53798.0,STARLINK-4712,PAYLOAD,2023-03-23 17:41:07,15.08845012,0.0001565,53.2166,90.7967,91.3925,268.7246,0.00023199,3.407e-05,0.0,0 STARLINK-4712,1 53798U 22111AB  23082.73688689  .00003407  00000-0  23199-3 0  9990,2 53798  53.2166  90.7967 0001565  91.3925 268.7246 15.08845012 30340,6917.865,95.437,540.813,538.647,0.0
53798.0,STARLINK-4712,PAYLOAD,2023-03-24 12:45:44,15.08873175,0.0001814,53.217,87.2269,92.0407,268.0793,0.0010537,0.00016537,0.0,0 STARLINK-4712,1 53798U 22111AB  23083.53175971  .00016537  00000-0  10537-2 0  9993,2 53798  53.2170  87.2269 0001814  92.0407 268.0793 15.08873175 29654,6917.779,95.435,540.899,538.389,0.0
53798.0,STARLINK-4712,PAYLOAD,2023-03-24 17:31:54,15.08831181,0.0002011,53.2168,86.335,88.7177,271.4045,-0.00022733,-3.904e-05,0.0,0 STARLINK-4712,1 53798U 22111AB  23083.73048869 -.00003904  00000-0 -22733-3 0  9998,2 53798  53.2168  86.3350 0002011  88.7177 271.4045 15.08831181 29680,6917.907,95.438,541.164,538.381,0.0
53798.0,STARLINK-4712,PAYLOAD,2023-03-25 17:22:42,15.08831497,0.0001432,53.217,81.8762,86.3036,273.812,0.00071913,0.00011173,0.0,0 STARLINK-4712,1 53798U 22111AB  23084.72409735  .00011173  00000-0  71913-3 0  9990,2 53798  53.2170  81.8762 0001432  86.3036 273.8120 15.08831497 30642,6917.906,95.438,540.762,538.781,0.0
53798.0,STARLINK-4712,PAYLOAD,2023-03-26 04:30:23,15.08845747,0.0001402,53.2174,79.7943,85.1475,274.9677,0.00094403,0.0001477,0.0,0 STARLINK-4712,1 53798U 22111AB  23085.18777735  .00014770  00000-0  94403-3 0  9994,2 53798  53.2174  79.7943 0001402  85.1475 274.9677 15.08845747 29903,6917.863,95.437,540.698,538.758,0.0
53798.0,STARLINK-4712,PAYLOAD,2023-03-26 10:51:56,15.08857107,0.0001355,53.2176,78.6041,90.466,269.6487,0.0010593,0.00016619,0.0,0 STARLINK-4712,1 53798U 22111AB  23085.45273420  .00016619  00000-0  10593-2 0  9997,2 53798  53.2176  78.6041 0001355  90.4660 269.6487 15.08857107 30752,6917.828,95.436,540.63,538.756,0.0
53798.0,STARLINK-4712,PAYLOAD,2023-03-27 04:21:10,15.0885425,0.0001298,53.2176,75.333,99.3346,260.7793,0.0005711,8.816e-05,0.0,0 STARLINK-4712,1 53798U 22111AB  23086.18137250  .00008816  00000-0  57110-3 0  9995,2 53798  53.2176  75.3330 0001298  99.3346 260.7793 15.08854250 30053,6917.837,95.437,540.6,538.804,0.0
53798.0,STARLINK-4712,PAYLOAD,2023-03-27 09:07:19,15.08861654,0.0001257,53.2178,74.4408,96.8341,263.2795,0.00083601,0.0001305,0.0,0 STARLINK-4712,1 53798U 22111AB  23086.38009023  .00013050  00000-0  83601-3 0  9993,2 53798  53.2178  74.4408 0001257  96.8341 263.2795 15.08861654 30891,6917.814,95.436,540.549,538.81,0.0
53798.0,STARLINK-4712,PAYLOAD,2023-03-28 05:47:20,15.08853425,0.0001313,53.2184,70.5762,97.8951,262.219,0.0010057,0.0001576,0.0,0 STARLINK-4712,1 53798U 22111AB  23087.24121183  .00015760  00000-0  10057-2 0  9995,2 53798  53.2184  70.5762 0001313  97.8951 262.2190 15.08853425 30210,6917.839,95.437,540.613,538.796,0.0
